HIMAWARI-8              
1 40267U 14060A   24123.53878910 -.00000278  00000+0  00000+0 0  9999
2 40267   0.0245 185.4443 0001026 227.1844 142.9170  1.00268516 34985
